STARLINK-32957          
1 63124U 25039W   25311.80084810  .00033896  00000+0  12344-2 0  9990
2 63124  43.0027 341.3048 0000720   4.3406 355.7452 15.27612597 39427
STARLINK-11609 [DTC]    
1 63132U 25043A   25311.81814650  .00289214  00000+0  21600-2 0  9990
2 63132  43.0002 265.4330 0001119 297.0677  63.0077 15.71058724 40297
STARLINK-11604 [DTC]    
1 63133U 25043B   25311.20354759  .00190558  00000+0  14541-2 0  9991
2 63133  42.9994 269.4354 0001758 240.5979 119.4713 15.70850440 40087
STARLINK-11605 [DTC]    
1 63134U 25043C   25310.93327722  .00313797  00000+0  23214-2 0  9990
2 63134  43.0008 270.8386 0002889 231.9291 128.1316 15.71209905 40041
STARLINK-11610 [DTC]    
1 63135U 25043D   25310.93858797  .00203703  00000+0  15549-2 0  9999
2 63135  43.0005 270.8816 0001765 272.8587  87.2078 15.70801338 40048
STARLINK-11613 [DTC]    
1 63136U 25043E   25311.57975042  .00314562  00000+0  23508-2 0  9994
2 63136  43.0015 267.0918 0001538 267.2365  92.8326 15.70966906 40266
STARLINK-11616 [DTC]    
1 63137U 25043F   25311.59646741  .00536345  00000+0  38809-2 0  9993
2 63137  43.0002 266.3309 0001644 324.9360  35.1400 15.71077054 40275
STARLINK-11611 [DTC]    
1 63138U 25043G   25310.91203573  .00237987  00000+0  18022-2 0  9996
2 63138  43.0002 270.6664 0001673 230.1580 129.9141 15.70884227 40161
STARLINK-11628 [DTC]    
1 63139U 25043H   25311.74394830  .00287808  00000+0  21519-2 0  9998
2 63139  43.0010 265.7280 0004778 307.3935  52.6497 15.71029090 40290
STARLINK-11607 [DTC]    
1 63140U 25043J   25311.60085410  .00288762  00000+0  21701-2 0  9999
2 63140  43.0010 266.3656 0001351 302.4741  57.5996 15.70911443 40278
STARLINK-11522 [DTC]    
1 63141U 25043K   25311.60616145  .00375618  00000+0  27669-2 0  9991
2 63141  43.0008 266.4063 0003416 281.4058  78.6426 15.71127118 40091
STARLINK-11503 [DTC]    
1 63142U 25043L   25311.59024264  .00375678  00000+0  27843-2 0  9995
2 63142  43.0006 266.2785 0002031 295.7650  64.3008 15.70982296 40090
STARLINK-11579 [DTC]    
1 63143U 25043M   25311.59555014  .00323589  00000+0  24192-2 0  9996
2 63143  43.0004 266.3201 0001658 260.3016  99.7665 15.70930928 40154
STARLINK-11581 [DTC]    
1 63144U 25043N   25311.74925299  .00390839  00000+0  28628-2 0  9990
2 63144  43.0004 265.7671 0003567 215.7632 144.2997 15.71215709 40291
STARLINK-32949          
1 63145U 25043P   25311.38113832  .00050605  00000+0  18346-2 0  9993
2 63145  43.0003 347.2395 0001563 235.8606 124.2098 15.27602550 39224
STARLINK-32952          
1 63146U 25043Q   25311.80960005  .00042934  00000+0  15602-2 0  9991
2 63146  43.0010 351.3468 0001391  56.5148 303.5836 15.27589212 39274
