[{"OBJECT_NAME":"STARLINK-32957","OBJECT_ID":"2025-039W","EPOCH":"2025-11-07T19:13:13.275840","MEAN_MOTION":15.27612597,"ECCENTRICITY":7.2e-5,"INCLINATION":43.0027,"RA_OF_ASC_NODE":341.3048,"ARG_OF_PERICENTER":4.3406,"MEAN_ANOMALY":355.7452,"EPHEMERIS_TYPE":0,"CLASSIFICATION_TYPE":"U","NORAD_CAT_ID":63124,"ELEMENT_SET_NO":999,"REV_AT_EPOCH":3942,"BSTAR":0.0012344,"MEAN_MOTION_DOT":0.00033896,"MEAN_MOTION_DDOT":0},{"OBJECT_NAME":"STARLINK-11609 [DTC]","OBJECT_ID":"2025-043A","EPOCH":"2025-11-07T19:38:07.857600","MEAN_MOTION":15.71058724,"ECCENTRICITY":0.0001119,"INCLINATION":43.0002,"RA_OF_ASC_NODE":265.433,"ARG_OF_PERICENTER":297.0677,"MEAN_ANOMALY":63.0077,"EPHEMERIS_TYPE":0,"CLASSIFICATION_TYPE":"U","NORAD_CAT_ID":63132,"ELEMENT_SET_NO":999,"REV_AT_EPOCH":4029,"BSTAR":0.00216,"MEAN_MOTION_DOT":0.00289214,"MEAN_MOTION_DDOT":0},{"OBJECT_NAME":"STARLINK-11604 [DTC]","OBJECT_ID":"2025-043B","EPOCH":"2025-11-07T04:53:06.511776","MEAN_MOTION":15.7085044,"ECCENTRICITY":0.0001758,"INCLINATION":42.9994,"RA_OF_ASC_NODE":269.4354,"ARG_OF_PERICENTER":240.5979,"MEAN_ANOMALY":119.4713,"EPHEMERIS_TYPE":0,"CLASSIFICATION_TYPE":"U","NORAD_CAT_ID":63133,"ELEMENT_SET_NO":999,"REV_AT_EPOCH":4008,"BSTAR":0.0014541,"MEAN_MOTION_DOT":0.00190558,"MEAN_MOTION_DDOT":0},{"OBJECT_NAME":"STARLINK-11605 [DTC]","OBJECT_ID":"2025-043C","EPOCH":"2025-11-06T22:23:55.151808","MEAN_MOTION":15.71209905,"ECCENTRICITY":0.0002889,"INCLINATION":43.0008,"RA_OF_ASC_NODE":270.8386,"ARG_OF_PERICENTER":231.9291,"MEAN_ANOMALY":128.1316,"EPHEMERIS_TYPE":0,"CLASSIFICATION_TYPE":"U","NORAD_CAT_ID":63134,"ELEMENT_SET_NO":999,"REV_AT_EPOCH":4004,"BSTAR":0.0023214378,"MEAN_MOTION_DOT":0.00313797,"MEAN_MOTION_DDOT":0},{"OBJECT_NAME":"STARLINK-11610 [DTC]","OBJECT_ID":"2025-043D","EPOCH":"2025-11-06T22:31:34.000608","MEAN_MOTION":15.70801338,"ECCENTRICITY":0.00017659,"INCLINATION":43.0005,"RA_OF_ASC_NODE":270.8816,"ARG_OF_PERICENTER":272.8587,"MEAN_ANOMALY":87.2078,"EPHEMERIS_TYPE":0,"CLASSIFICATION_TYPE":"U","NORAD_CAT_ID":63135,"ELEMENT_SET_NO":999,"REV_AT_EPOCH":4004,"BSTAR":0.0015549083,"MEAN_MOTION_DOT":0.00203703,"MEAN_MOTION_DDOT":0},{"OBJECT_NAME":"STARLINK-11613 [DTC]","OBJECT_ID":"2025-043E","EPOCH":"2025-11-07T13:54:50.436288","MEAN_MOTION":15.70966906,"ECCENTRICITY":0.0001538,"INCLINATION":43.0015,"RA_OF_ASC_NODE":267.0918,"ARG_OF_PERICENTER":267.2365,"MEAN_ANOMALY":92.8326,"EPHEMERIS_TYPE":0,"CLASSIFICATION_TYPE":"U","NORAD_CAT_ID":63136,"ELEMENT_SET_NO":999,"REV_AT_EPOCH":4026,"BSTAR":0.0023508,"MEAN_MOTION_DOT":0.00314562,"MEAN_MOTION_DDOT":0},{"OBJECT_NAME":"STARLINK-11616 [DTC]","OBJECT_ID":"2025-043F","EPOCH":"2025-11-07T14:18:54.784224","MEAN_MOTION":15.71077054,"ECCENTRICITY":0.0001644,"INCLINATION":43.0002,"RA_OF_ASC_NODE":266.3309,"ARG_OF_PERICENTER":324.936,"MEAN_ANOMALY":35.14,"EPHEMERIS_TYPE":0,"CLASSIFICATION_TYPE":"U","NORAD_CAT_ID":63137,"ELEMENT_SET_NO":999,"REV_AT_EPOCH":4027,"BSTAR":0.0038809,"MEAN_MOTION_DOT":0.00536345,"MEAN_MOTION_DDOT":0},{"OBJECT_NAME":"STARLINK-11611 [DTC]","OBJECT_ID":"2025-043G","EPOCH":"2025-11-06T21:53:19.887072","MEAN_MOTION":15.70884227,"ECCENTRICITY":0.0001673,"INCLINATION":43.0002,"RA_OF_ASC_NODE":270.6664,"ARG_OF_PERICENTER":230.158,"MEAN_ANOMALY":129.9141,"EPHEMERIS_TYPE":0,"CLASSIFICATION_TYPE":"U","NORAD_CAT_ID":63138,"ELEMENT_SET_NO":999,"REV_AT_EPOCH":4016,"BSTAR":0.0018022,"MEAN_MOTION_DOT":0.00237987,"MEAN_MOTION_DDOT":0},{"OBJECT_NAME":"STARLINK-11628 [DTC]","OBJECT_ID":"2025-043H","EPOCH":"2025-11-07T17:51:17.133120","MEAN_MOTION":15.7102909,"ECCENTRICITY":0.0004778,"INCLINATION":43.001,"RA_OF_ASC_NODE":265.728,"ARG_OF_PERICENTER":307.3935,"MEAN_ANOMALY":52.6497,"EPHEMERIS_TYPE":0,"CLASSIFICATION_TYPE":"U","NORAD_CAT_ID":63139,"ELEMENT_SET_NO":999,"REV_AT_EPOCH":4029,"BSTAR":0.0021519,"MEAN_MOTION_DOT":0.00287808,"MEAN_MOTION_DDOT":0},{"OBJECT_NAME":"STARLINK-11607 [DTC]","OBJECT_ID":"2025-043J","EPOCH":"2025-11-07T14:25:13.794240","MEAN_MOTION":15.70911443,"ECCENTRICITY":0.0001351,"INCLINATION":43.001,"RA_OF_ASC_NODE":266.3656,"ARG_OF_PERICENTER":302.4741,"MEAN_ANOMALY":57.5996,"EPHEMERIS_TYPE":0,"CLASSIFICATION_TYPE":"U","NORAD_CAT_ID":63140,"ELEMENT_SET_NO":999,"REV_AT_EPOCH":4027,"BSTAR":0.0021701,"MEAN_MOTION_DOT":0.00288762,"MEAN_MOTION_DDOT":0},{"OBJECT_NAME":"STARLINK-11522 [DTC]","OBJECT_ID":"2025-043K","EPOCH":"2025-11-07T14:32:52.349280","MEAN_MOTION":15.71127118,"ECCENTRICITY":0.0003416,"INCLINATION":43.0008,"RA_OF_ASC_NODE":266.4063,"ARG_OF_PERICENTER":281.4058,"MEAN_ANOMALY":78.6426,"EPHEMERIS_TYPE":0,"CLASSIFICATION_TYPE":"U","NORAD_CAT_ID":63141,"ELEMENT_SET_NO":999,"REV_AT_EPOCH":4009,"BSTAR":0.0027669,"MEAN_MOTION_DOT":0.00375618,"MEAN_MOTION_DDOT":0},{"OBJECT_NAME":"STARLINK-11503 [DTC]","OBJECT_ID":"2025-043L","EPOCH":"2025-11-07T14:09:56.964096","MEAN_MOTION":15.70982296,"ECCENTRICITY":0.0002031,"INCLINATION":43.0006,"RA_OF_ASC_NODE":266.2785,"ARG_OF_PERICENTER":295.765,"MEAN_ANOMALY":64.3008,"EPHEMERIS_TYPE":0,"CLASSIFICATION_TYPE":"U","NORAD_CAT_ID":63142,"ELEMENT_SET_NO":999,"REV_AT_EPOCH":4009,"BSTAR":0.0027843,"MEAN_MOTION_DOT":0.00375678,"MEAN_MOTION_DDOT":0},{"OBJECT_NAME":"STARLINK-11579 [DTC]","OBJECT_ID":"2025-043M","EPOCH":"2025-11-07T14:17:35.532096","MEAN_MOTION":15.70930928,"ECCENTRICITY":0.0001658,"INCLINATION":43.0004,"RA_OF_ASC_NODE":266.3201,"ARG_OF_PERICENTER":260.3016,"MEAN_ANOMALY":99.7665,"EPHEMERIS_TYPE":0,"CLASSIFICATION_TYPE":"U","NORAD_CAT_ID":63143,"ELEMENT_SET_NO":999,"REV_AT_EPOCH":4015,"BSTAR":0.0024192,"MEAN_MOTION_DOT":0.00323589,"MEAN_MOTION_DDOT":0},{"OBJECT_NAME":"STARLINK-11581 [DTC]","OBJECT_ID":"2025-043N","EPOCH":"2025-11-07T17:58:55.458336","MEAN_MOTION":15.71215709,"ECCENTRICITY":0.0003567,"INCLINATION":43.0004,"RA_OF_ASC_NODE":265.7671,"ARG_OF_PERICENTER":215.7632,"MEAN_ANOMALY":144.2997,"EPHEMERIS_TYPE":0,"CLASSIFICATION_TYPE":"U","NORAD_CAT_ID":63144,"ELEMENT_SET_NO":999,"REV_AT_EPOCH":4029,"BSTAR":0.0028628,"MEAN_MOTION_DOT":0.00390839,"MEAN_MOTION_DDOT":0},{"OBJECT_NAME":"STARLINK-32949","OBJECT_ID":"2025-043P","EPOCH":"2025-11-07T09:08:50.350848","MEAN_MOTION":15.2760255,"ECCENTRICITY":0.0001563,"INCLINATION":43.0003,"RA_OF_ASC_NODE":347.2395,"ARG_OF_PERICENTER":235.8606,"MEAN_ANOMALY":124.2098,"EPHEMERIS_TYPE":0,"CLASSIFICATION_TYPE":"U","NORAD_CAT_ID":63145,"ELEMENT_SET_NO":999,"REV_AT_EPOCH":3922,"BSTAR":0.0018346,"MEAN_MOTION_DOT":0.00050605,"MEAN_MOTION_DDOT":0},{"OBJECT_NAME":"STARLINK-32952","OBJECT_ID":"2025-043Q","EPOCH":"2025-11-07T19:25:49.444320","MEAN_MOTION":15.27589212,"ECCENTRICITY":0.0001391,"INCLINATION":43.001,"RA_OF_ASC_NODE":351.3468,"ARG_OF_PERICENTER":56.5148,"MEAN_ANOMALY":303.5836,"EPHEMERIS_TYPE":0,"CLASSIFICATION_TYPE":"U","NORAD_CAT_ID":63146,"ELEMENT_SET_NO":999,"REV_AT_EPOCH":3927,"BSTAR":0.0015602,"MEAN_MOTION_DOT":0.00042934,"MEAN_MOTION_DDOT":0}]
